{
  "type": "FeatureCollection",
  "features": [
    {
      "type": "Feature",
      "properties": {
        "norad_id": 43648,
        "name": "BEIDOU-3 M15 (C34)",
        "group": "gnss",
        "lat": 30.913581643740066,
        "lon": 101.3415163568444,
        "alt_km": 21529.664294857128,
        "timestamp": "2025-12-02T07:10:09.357753+00:00",
        "meta_object_name": "BEIDOU-3 M15 (C34)",
        "meta_object_id": "2018-078B",
        "meta_epoch": "2025-12-01T00:21:40.976640",
        "meta_mean_motion": 1.86232,
        "meta_eccentricity": 0.0003569,
        "meta_inclination": 54.2686,
        "meta_ra_of_asc_node": 306.9322,
        "meta_arg_of_pericenter": 17.0419,
        "meta_mean_anomaly": 342.9634,
        "meta_ephemeris_type": 0,
        "meta_classification_type": "U",
        "meta_norad_cat_id": 43648,
        "meta_element_set_no": 999,
        "meta_rev_at_epoch": 4848,
        "meta_bstar": 0,
        "meta_mean_motion_dot": -5.6e-07,
        "meta_mean_motion_ddot": 0,
        "tle_line1": "1 43648U 18078B   25335.01505760 -.00000056  00000+0  00000+0 0  9991",
        "tle_line2": "2 43648  54.2686 306.9322 0003569  17.0419 342.9634  1.86232000 48485"
      },
      "geometry": {
        "type": "Point",
        "coordinates": [
          101.3415163568444,
          30.913581643740066
        ]
      }
    },
    {
      "type": "Feature",
      "properties": {
        "norad_id": 43683,
        "name": "BEIDOU-3 G1 (C59)",
        "group": "gnss",
        "lat": -1.50247559927699,
        "lon": -41.06976435679587,
        "alt_km": 35793.664952981635,
        "timestamp": "2025-12-02T07:10:09.357773+00:00",
        "meta_object_name": "BEIDOU-3 G1 (C59)",
        "meta_object_id": "2018-085A",
        "meta_epoch": "2025-12-01T23:02:32.785152",
        "meta_mean_motion": 1.00274254,
        "meta_eccentricity": 0.0002122,
        "meta_inclination": 2.5784,
        "meta_ra_of_asc_node": 103.2993,
        "meta_arg_of_pericenter": 61.0214,
        "meta_mean_anomaly": 32.4115,
        "meta_ephemeris_type": 0,
        "meta_classification_type": "U",
        "meta_norad_cat_id": 43683,
        "meta_element_set_no": 999,
        "meta_rev_at_epoch": 2608,
        "meta_bstar": 0,
        "meta_mean_motion_dot": -2.55e-06,
        "meta_mean_motion_ddot": 0,
        "tle_line1": "1 43683U 18085A   25335.96010168 -.00000255  00000+0  00000+0 0  9996",
        "tle_line2": "2 43683   2.5784 103.2993 0002122  61.0214  32.4115  1.00274254 26087"
      },
      "geometry": {
        "type": "Point",
        "coordinates": [
          -41.06976435679587,
          -1.50247559927699
        ]
      }
    },
    {
      "type": "Feature",
      "properties": {
        "norad_id": 43687,
        "name": "COSMOS 2529 (757)",
        "group": "gnss",
        "lat": 19.60940892544111,
        "lon": 9.365314349532493,
        "alt_km": 19129.92913795483,
        "timestamp": "2025-12-02T07:10:09.357791+00:00",
        "meta_object_name": "COSMOS 2529 (757)",
        "meta_object_id": "2018-086A",
        "meta_epoch": "2025-12-01T03:41:39.870816",
        "meta_mean_motion": 2.13101897,
        "meta_eccentricity": 0.0007348,
        "meta_inclination": 64.2916,
        "meta_ra_of_asc_node": 199.28,
        "meta_arg_of_pericenter": 254.5997,
        "meta_mean_anomaly": 105.4111,
        "meta_ephemeris_type": 0,
        "meta_classification_type": "U",
        "meta_norad_cat_id": 43687,
        "meta_element_set_no": 999,
        "meta_rev_at_epoch": 5506,
        "meta_bstar": 0,
        "meta_mean_motion_dot": 9.9e-07,
        "meta_mean_motion_ddot": 0,
        "tle_line1": "1 43687U 18086A   25335.15393369  .00000099  00000+0  00000+0 0  9994",
        "tle_line2": "2 43687  64.2916 199.2800 0007348 254.5997 105.4111  2.13101897 55061"
      },
      "geometry": {
        "type": "Point",
        "coordinates": [
          9.365314349532493,
          19.60940892544111
        ]
      }
    },
    {
      "type": "Feature",
      "properties": {
        "norad_id": 43706,
        "name": "BEIDOU-3 M17 (C36)",
        "group": "gnss",
        "lat": 27.28473712336124,
        "lon": -149.14023653351376,
        "alt_km": 21524.477399011117,
        "timestamp": "2025-12-02T07:10:09.357809+00:00",
        "meta_object_name": "BEIDOU-3 M17 (C36)",
        "meta_object_id": "2018-093A",
        "meta_epoch": "2025-11-30T05:23:59.265600",
        "meta_mean_motion": 1.86228182,
        "meta_eccentricity": 0.00063751,
        "meta_inclination": 54.1727,
        "meta_ra_of_asc_node": 189.0472,
        "meta_arg_of_pericenter": 306.0351,
        "meta_mean_anomaly": 138.1008,
        "meta_ephemeris_type": 0,
        "meta_classification_type": "U",
        "meta_norad_cat_id": 43706,
        "meta_element_set_no": 999,
        "meta_rev_at_epoch": 4783,
        "meta_bstar": 0,
        "meta_mean_motion_dot": 1.11e-06,
        "meta_mean_motion_ddot": 0,
        "tle_line1": "1 43706U 18093A   25334.22499150  .00000111  00000+0  00000+0 0  9991",
        "tle_line2": "2 43706  54.1727 189.0472 0006375 306.0351 138.1008  1.86228182 47839"
      },
      "geometry": {
        "type": "Point",
        "coordinates": [
          -149.14023653351376,
          27.28473712336124
        ]
      }
    },
    {
      "type": "Feature",
      "properties": {
        "norad_id": 43707,
        "name": "BEIDOU-3 M18 (C37)",
        "group": "gnss",
        "lat": 40.08642257115444,
        "lon": -28.463425694205768,
        "alt_km": 21536.503222181283,
        "timestamp": "2025-12-02T07:10:09.357831+00:00",
        "meta_object_name": "BEIDOU-3 M18 (C37)",
        "meta_object_id": "2018-093B",
        "meta_epoch": "2025-12-01T00:50:13.072128",
        "meta_mean_motion": 1.86226416,
        "meta_eccentricity": 0.0006364,
        "meta_inclination": 54.1734,
        "meta_ra_of_asc_node": 189.0115,
        "meta_arg_of_pericenter": 350.6822,
        "meta_mean_anomaly": 9.3993,
        "meta_ephemeris_type": 0,
        "meta_classification_type": "U",
        "meta_norad_cat_id": 43707,
        "meta_element_set_no": 999,
        "meta_rev_at_epoch": 4784,
        "meta_bstar": 0,
        "meta_mean_motion_dot": 1.18e-06,
        "meta_mean_motion_ddot": 0,
        "tle_line1": "1 43707U 18093B   25335.03487352  .00000118  00000+0  00000+0 0  9990",
        "tle_line2": "2 43707  54.1734 189.0115 0006364 350.6822   9.3993  1.86226416 47849"
      },
      "geometry": {
        "type": "Point",
        "coordinates": [
          -28.463425694205768,
          40.08642257115444
        ]
      }
    },
    {
      "type": "Feature",
      "properties": {
        "norad_id": 43873,
        "name": "GPS BIII-1  (PRN 04)",
        "group": "gnss",
        "lat": 12.551143850714084,
        "lon": -88.83792647673812,
        "alt_km": 20095.85293593255,
        "timestamp": "2025-12-02T07:10:09.357849+00:00",
        "meta_object_name": "GPS BIII-1  (PRN 04)",
        "meta_object_id": "2018-109A",
        "meta_epoch": "2025-12-01T14:03:36.800640",
        "meta_mean_motion": 2.00553137,
        "meta_eccentricity": 0.00371823,
        "meta_inclination": 55.5605,
        "meta_ra_of_asc_node": 99.9877,
        "meta_arg_of_pericenter": 194.4831,
        "meta_mean_anomaly": 175.6663,
        "meta_ephemeris_type": 0,
        "meta_classification_type": "U",
        "meta_norad_cat_id": 43873,
        "meta_element_set_no": 999,
        "meta_rev_at_epoch": 5111,
        "meta_bstar": 0,
        "meta_mean_motion_dot": 2.2e-07,
        "meta_mean_motion_ddot": 0,
        "tle_line1": "1 43873U 18109A   25335.58584260  .00000022  00000+0  00000+0 0  9992",
        "tle_line2": "2 43873  55.5605  99.9877 0037182 194.4831 175.6663  2.00553137 51111"
      },
      "geometry": {
        "type": "Point",
        "coordinates": [
          -88.83792647673812,
          12.551143850714084
        ]
      }
    },
    {
      "type": "Feature",
      "properties": {
        "norad_id": 44204,
        "name": "BEIDOU-3 IGSO-1 (C38)",
        "group": "gnss",
        "lat": -54.82083283758276,
        "lon": -79.70189670582306,
        "alt_km": 35702.407114122856,
        "timestamp": "2025-12-02T07:10:09.357867+00:00",
        "meta_object_name": "BEIDOU-3 IGSO-1 (C38)",
        "meta_object_id": "2019-023A",
        "meta_epoch": "2025-11-19T14:15:02.708640",
        "meta_mean_motion": 1.00252177,
        "meta_eccentricity": 0.0026966,
        "meta_inclination": 58.4003,
        "meta_ra_of_asc_node": 39.8168,
        "meta_arg_of_pericenter": 221.2202,
        "meta_mean_anomaly": 126.9723,
        "meta_ephemeris_type": 0,
        "meta_classification_type": "U",
        "meta_norad_cat_id": 44204,
        "meta_element_set_no": 999,
        "meta_rev_at_epoch": 510,
        "meta_bstar": 0,
        "meta_mean_motion_dot": -2.26e-06,
        "meta_mean_motion_ddot": 0,
        "tle_line1": "1 44204U 19023A   25323.59378135 -.00000226  00000+0  00000+0 0  9994",
        "tle_line2": "2 44204  58.4003  39.8168 0026966 221.2202 126.9723  1.00252177  5102"
      },
      "geometry": {
        "type": "Point",
        "coordinates": [
          -79.70189670582306,
          -54.82083283758276
        ]
      }
    }
  ]
}